TRANSPORTER-12 OBJECT AZ
1 62656U 25009AZ  26068.71026235  .00016057  00000+0  54903-3 0  9991
2 62656  97.3981 151.9913 0000987  45.3581 314.7740 15.30349724 63792
STARLINK-34906          
1 65896U 25224Q   26068.16749233  .00022883  00000+0  78284-3 0  9990
2 65896  53.1626  13.8184 0000980 109.5738 250.5369 15.30179574 24798
